STARLINK-2209_new
1 17776C 21017BG  21326.14079288  .00005723  00000-0  38351-3 0  3269
2 17776  53.0545  53.1160 0001386  83.0020 250.8069 15.06388189    12
STARLINK-2209_old
1 27776C 21017BG  21325.14497662 -.00003185  00000-0 -21337-3 0  3255
2 27776  53.0548  57.5862 0001354  81.6456 248.7970 15.06411386    17
